[{"OBJECT_NAME":"STARLINK-4667","OBJECT_ID":"2022-107H","EPOCH":"2025-11-03T11:58:19.285248","MEAN_MOTION":15.08837062,"ECCENTRICITY":0.00013262,"INCLINATION":53.2172,"RA_OF_ASC_NODE":75.6245,"ARG_OF_PERICENTER":89.1036,"MEAN_ANOMALY":271.0108,"EPHEMERIS_TYPE":0,"CLASSIFICATION_TYPE":"U","NORAD_CAT_ID":53707,"ELEMENT_SET_NO":999,"REV_AT_EPOCH":17601,"BSTAR":-1.3375581e-5,"MEAN_MOTION_DOT":-5.01e-6,"MEAN_MOTION_DDOT":0},{"OBJECT_NAME":"STARLINK-4694","OBJECT_ID":"2022-107J","EPOCH":"2025-11-04T01:55:35.037696","MEAN_MOTION":15.08829519,"ECCENTRICITY":0.00013218,"INCLINATION":53.2138,"RA_OF_ASC_NODE":72.8668,"ARG_OF_PERICENTER":89.5771,"MEAN_ANOMALY":270.5373,"EPHEMERIS_TYPE":0,"CLASSIFICATION_TYPE":"U","NORAD_CAT_ID":53708,"ELEMENT_SET_NO":999,"REV_AT_EPOCH":17610,"BSTAR":0.00010307899,"MEAN_MOTION_DOT":1.353e-5,"MEAN_MOTION_DDOT":0},{"OBJECT_NAME":"STARLINK-4685","OBJECT_ID":"2022-107K","EPOCH":"2025-11-03T22:26:12.724800","MEAN_MOTION":15.0884275,"ECCENTRICITY":0.000129,"INCLINATION":53.2165,"RA_OF_ASC_NODE":93.3476,"ARG_OF_PERICENTER":85.1282,"MEAN_ANOMALY":274.9857,"EPHEMERIS_TYPE":0,"CLASSIFICATION_TYPE":"U","NORAD_CAT_ID":53709,"ELEMENT_SET_NO":999,"REV_AT_EPOCH":17549,"BSTAR":5.2439e-5,"MEAN_MOTION_DOT":5.47e-6,"MEAN_MOTION_DDOT":0},{"OBJECT_NAME":"STARLINK-4627","OBJECT_ID":"2022-107M","EPOCH":"2025-11-04T03:28:17.280480","MEAN_MOTION":15.08843071,"ECCENTRICITY":0.00013762,"INCLINATION":53.2163,"RA_OF_ASC_NODE":92.5144,"ARG_OF_PERICENTER":99.4573,"MEAN_ANOMALY":260.6575,"EPHEMERIS_TYPE":0,"CLASSIFICATION_TYPE":"U","NORAD_CAT_ID":53711,"ELEMENT_SET_NO":999,"REV_AT_EPOCH":17552,"BSTAR":6.9846201e-5,"MEAN_MOTION_DOT":8.24e-6,"MEAN_MOTION_DDOT":0},{"OBJECT_NAME":"STARLINK-4683","OBJECT_ID":"2022-107N","EPOCH":"2025-11-03T18:54:11.765952","MEAN_MOTION":15.08848537,"ECCENTRICITY":0.00011519,"INCLINATION":53.2159,"RA_OF_ASC_NODE":93.8566,"ARG_OF_PERICENTER":82.8613,"MEAN_ANOMALY":277.251,"EPHEMERIS_TYPE":0,"CLASSIFICATION_TYPE":"U","NORAD_CAT_ID":53712,"ELEMENT_SET_NO":999,"REV_AT_EPOCH":17549,"BSTAR":0.00014005667,"MEAN_MOTION_DOT":1.942e-5,"MEAN_MOTION_DDOT":0},{"OBJECT_NAME":"STARLINK-4686","OBJECT_ID":"2022-107R","EPOCH":"2025-11-04T03:19:39.932832","MEAN_MOTION":15.08841914,"ECCENTRICITY":0.00011984,"INCLINATION":53.2163,"RA_OF_ASC_NODE":97.4559,"ARG_OF_PERICENTER":85.8683,"MEAN_ANOMALY":274.2446,"EPHEMERIS_TYPE":0,"CLASSIFICATION_TYPE":"U","NORAD_CAT_ID":53715,"ELEMENT_SET_NO":999,"REV_AT_EPOCH":17546,"BSTAR":2.1081815e-5,"MEAN_MOTION_DOT":4.8e-7,"MEAN_MOTION_DDOT":0},{"OBJECT_NAME":"STARLINK-4699","OBJECT_ID":"2022-107S","EPOCH":"2025-11-03T17:42:02.001024","MEAN_MOTION":15.08847596,"ECCENTRICITY":0.00012586,"INCLINATION":53.2172,"RA_OF_ASC_NODE":99.2157,"ARG_OF_PERICENTER":87.089,"MEAN_ANOMALY":273.0246,"EPHEMERIS_TYPE":0,"CLASSIFICATION_TYPE":"U","NORAD_CAT_ID":53716,"ELEMENT_SET_NO":999,"REV_AT_EPOCH":17539,"BSTAR":0.00012073667,"MEAN_MOTION_DOT":1.635e-5,"MEAN_MOTION_DDOT":0},{"OBJECT_NAME":"STARLINK-4695","OBJECT_ID":"2022-107U","EPOCH":"2025-11-04T02:59:56.557824","MEAN_MOTION":15.08837975,"ECCENTRICITY":0.00013149,"INCLINATION":53.2156,"RA_OF_ASC_NODE":98.0645,"ARG_OF_PERICENTER":89.8473,"MEAN_ANOMALY":270.2669,"EPHEMERIS_TYPE":0,"CLASSIFICATION_TYPE":"U","NORAD_CAT_ID":53718,"ELEMENT_SET_NO":999,"REV_AT_EPOCH":17544,"BSTAR":8.4727651e-5,"MEAN_MOTION_DOT":1.061e-5,"MEAN_MOTION_DDOT":0},{"OBJECT_NAME":"STARLINK-4644","OBJECT_ID":"2022-107V","EPOCH":"2025-11-04T01:27:02.467008","MEAN_MOTION":15.08839843,"ECCENTRICITY":0.00014284,"INCLINATION":53.216,"RA_OF_ASC_NODE":67.7149,"ARG_OF_PERICENTER":85.5011,"MEAN_ANOMALY":274.6145,"EPHEMERIS_TYPE":0,"CLASSIFICATION_TYPE":"U","NORAD_CAT_ID":53719,"ELEMENT_SET_NO":999,"REV_AT_EPOCH":17587,"BSTAR":5.7301421e-5,"MEAN_MOTION_DOT":6.24e-6,"MEAN_MOTION_DDOT":0},{"OBJECT_NAME":"STARLINK-4642","OBJECT_ID":"2022-107W","EPOCH":"2025-11-04T03:24:58.947552","MEAN_MOTION":15.0884244,"ECCENTRICITY":0.00017168,"INCLINATION":53.2192,"RA_OF_ASC_NODE":97.4796,"ARG_OF_PERICENTER":82.0923,"MEAN_ANOMALY":278.0264,"EPHEMERIS_TYPE":0,"CLASSIFICATION_TYPE":"U","NORAD_CAT_ID":53720,"ELEMENT_SET_NO":999,"REV_AT_EPOCH":17546,"BSTAR":-4.8870881e-5,"MEAN_MOTION_DOT":-1.066e-5,"MEAN_MOTION_DDOT":0},{"OBJECT_NAME":"STARLINK-4707","OBJECT_ID":"2022-107X","EPOCH":"2025-11-04T03:35:35.822688","MEAN_MOTION":15.08840736,"ECCENTRICITY":0.00015139,"INCLINATION":53.2165,"RA_OF_ASC_NODE":97.5265,"ARG_OF_PERICENTER":97.0548,"MEAN_ANOMALY":263.0617,"EPHEMERIS_TYPE":0,"CLASSIFICATION_TYPE":"U","NORAD_CAT_ID":53721,"ELEMENT_SET_NO":999,"REV_AT_EPOCH":17546,"BSTAR":0.00010805366,"MEAN_MOTION_DOT":1.432e-5,"MEAN_MOTION_DDOT":0},{"OBJECT_NAME":"STARLINK-4700","OBJECT_ID":"2022-107Y","EPOCH":"2025-11-03T16:38:27.469536","MEAN_MOTION":15.0885869,"ECCENTRICITY":0.00013345,"INCLINATION":53.2153,"RA_OF_ASC_NODE":99.6488,"ARG_OF_PERICENTER":87.5402,"MEAN_ANOMALY":272.5743,"EPHEMERIS_TYPE":0,"CLASSIFICATION_TYPE":"U","NORAD_CAT_ID":53722,"ELEMENT_SET_NO":999,"REV_AT_EPOCH":17538,"BSTAR":0.0001742911,"MEAN_MOTION_DOT":2.488e-5,"MEAN_MOTION_DDOT":0},{"OBJECT_NAME":"STARLINK-4705","OBJECT_ID":"2022-107Z","EPOCH":"2025-11-04T03:09:03.201120","MEAN_MOTION":15.08840602,"ECCENTRICITY":0.00012264,"INCLINATION":53.2164,"RA_OF_ASC_NODE":97.4176,"ARG_OF_PERICENTER":88.393,"MEAN_ANOMALY":271.7203,"EPHEMERIS_TYPE":0,"CLASSIFICATION_TYPE":"U","NORAD_CAT_ID":53723,"ELEMENT_SET_NO":999,"REV_AT_EPOCH":17560,"BSTAR":-0.00014731038,"MEAN_MOTION_DOT":-2.632e-5,"MEAN_MOTION_DDOT":0},{"OBJECT_NAME":"STARLINK-4663","OBJECT_ID":"2022-107AA","EPOCH":"2025-11-04T03:30:16.377696","MEAN_MOTION":15.08842088,"ECCENTRICITY":0.00012221,"INCLINATION":53.2152,"RA_OF_ASC_NODE":97.5014,"ARG_OF_PERICENTER":88.6961,"MEAN_ANOMALY":271.4171,"EPHEMERIS_TYPE":0,"CLASSIFICATION_TYPE":"U","NORAD_CAT_ID":53724,"ELEMENT_SET_NO":999,"REV_AT_EPOCH":17546,"BSTAR":3.8596759e-5,"MEAN_MOTION_DOT":3.26e-6,"MEAN_MOTION_DDOT":0},{"OBJECT_NAME":"STARLINK-4697","OBJECT_ID":"2022-107AC","EPOCH":"2025-11-04T03:40:53.333184","MEAN_MOTION":15.08840442,"ECCENTRICITY":0.0001402,"INCLINATION":53.2162,"RA_OF_ASC_NODE":97.5467,"ARG_OF_PERICENTER":87.7333,"MEAN_ANOMALY":272.3819,"EPHEMERIS_TYPE":0,"CLASSIFICATION_TYPE":"U","NORAD_CAT_ID":53726,"ELEMENT_SET_NO":999,"REV_AT_EPOCH":17546,"BSTAR":4.6682184e-5,"MEAN_MOTION_DOT":4.55e-6,"MEAN_MOTION_DDOT":0},{"OBJECT_NAME":"STARLINK-4701","OBJECT_ID":"2022-107AD","EPOCH":"2025-11-03T16:49:06.273984","MEAN_MOTION":15.08842025,"ECCENTRICITY":0.00011686,"INCLINATION":53.2157,"RA_OF_ASC_NODE":99.6989,"ARG_OF_PERICENTER":82.1725,"MEAN_ANOMALY":277.94,"EPHEMERIS_TYPE":0,"CLASSIFICATION_TYPE":"U","NORAD_CAT_ID":53727,"ELEMENT_SET_NO":999,"REV_AT_EPOCH":17553,"BSTAR":1.8867207e-5,"MEAN_MOTION_DOT":1.2e-7,"MEAN_MOTION_DDOT":0},{"OBJECT_NAME":"STARLINK-4640","OBJECT_ID":"2022-107AE","EPOCH":"2025-11-04T03:51:30.231648","MEAN_MOTION":15.08838195,"ECCENTRICITY":0.00013166,"INCLINATION":53.2165,"RA_OF_ASC_NODE":97.5946,"ARG_OF_PERICENTER":82.7377,"MEAN_ANOMALY":277.3765,"EPHEMERIS_TYPE":0,"CLASSIFICATION_TYPE":"U","NORAD_CAT_ID":53728,"ELEMENT_SET_NO":999,"REV_AT_EPOCH":17560,"BSTAR":9.7242545e-5,"MEAN_MOTION_DOT":1.26e-5,"MEAN_MOTION_DDOT":0},{"OBJECT_NAME":"STARLINK-4651","OBJECT_ID":"2022-107AF","EPOCH":"2025-11-03T17:05:01.543488","MEAN_MOTION":15.0883673,"ECCENTRICITY":0.00013975,"INCLINATION":53.2155,"RA_OF_ASC_NODE":99.7682,"ARG_OF_PERICENTER":87.4364,"MEAN_ANOMALY":272.6788,"EPHEMERIS_TYPE":0,"CLASSIFICATION_TYPE":"U","NORAD_CAT_ID":53729,"ELEMENT_SET_NO":999,"REV_AT_EPOCH":17556,"BSTAR":1.0392961e-5,"MEAN_MOTION_DOT":-1.23e-6,"MEAN_MOTION_DDOT":0},{"OBJECT_NAME":"STARLINK-4641","OBJECT_ID":"2022-107AG","EPOCH":"2025-11-02T21:49:46.720992","MEAN_MOTION":15.08843162,"ECCENTRICITY":9.773e-5,"INCLINATION":53.2156,"RA_OF_ASC_NODE":103.2914,"ARG_OF_PERICENTER":65.5698,"MEAN_ANOMALY":294.5396,"EPHEMERIS_TYPE":0,"CLASSIFICATION_TYPE":"U","NORAD_CAT_ID":53730,"ELEMENT_SET_NO":999,"REV_AT_EPOCH":17541,"BSTAR":0.00010667162,"MEAN_MOTION_DOT":1.41e-5,"MEAN_MOTION_DDOT":0},{"OBJECT_NAME":"STARLINK-4636","OBJECT_ID":"2022-107AH","EPOCH":"2025-11-04T02:42:38.689056","MEAN_MOTION":15.08839557,"ECCENTRICITY":0.00012817,"INCLINATION":53.2164,"RA_OF_ASC_NODE":98.0067,"ARG_OF_PERICENTER":87.8346,"MEAN_ANOMALY":272.2793,"EPHEMERIS_TYPE":0,"CLASSIFICATION_TYPE":"U","NORAD_CAT_ID":53731,"ELEMENT_SET_NO":999,"REV_AT_EPOCH":17562,"BSTAR":4.5082011e-5,"MEAN_MOTION_DOT":4.3e-6,"MEAN_MOTION_DDOT":0},{"OBJECT_NAME":"STARLINK-4661","OBJECT_ID":"2022-107AJ","EPOCH":"2025-11-03T17:01:07.335552","MEAN_MOTION":15.08842079,"ECCENTRICITY":0.00013608,"INCLINATION":53.2135,"RA_OF_ASC_NODE":99.7522,"ARG_OF_PERICENTER":93.0015,"MEAN_ANOMALY":267.1133,"EPHEMERIS_TYPE":0,"CLASSIFICATION_TYPE":"U","NORAD_CAT_ID":53732,"ELEMENT_SET_NO":999,"REV_AT_EPOCH":17553,"BSTAR":-6.4377846e-5,"MEAN_MOTION_DOT":-1.312e-5,"MEAN_MOTION_DDOT":0},{"OBJECT_NAME":"STARLINK-4574","OBJECT_ID":"2022-107AK","EPOCH":"2025-11-04T02:53:15.546912","MEAN_MOTION":15.08835763,"ECCENTRICITY":0.00013836,"INCLINATION":53.2155,"RA_OF_ASC_NODE":98.052,"ARG_OF_PERICENTER":90.1002,"MEAN_ANOMALY":270.0148,"EPHEMERIS_TYPE":0,"CLASSIFICATION_TYPE":"U","NORAD_CAT_ID":53733,"ELEMENT_SET_NO":999,"REV_AT_EPOCH":17562,"BSTAR":1.1849698e-5,"MEAN_MOTION_DOT":-9.9e-7,"MEAN_MOTION_DDOT":0},{"OBJECT_NAME":"STARLINK-4616","OBJECT_ID":"2022-107AL","EPOCH":"2025-11-03T10:38:10.465152","MEAN_MOTION":15.08840107,"ECCENTRICITY":0.00014665,"INCLINATION":53.2153,"RA_OF_ASC_NODE":100.9386,"ARG_OF_PERICENTER":78.2911,"MEAN_ANOMALY":281.8245,"EPHEMERIS_TYPE":0,"CLASSIFICATION_TYPE":"U","NORAD_CAT_ID":53734,"ELEMENT_SET_NO":999,"REV_AT_EPOCH":17552,"BSTAR":-0.00016601084,"MEAN_MOTION_DOT":-2.929e-5,"MEAN_MOTION_DDOT":0}]
